[{"OBJECT_NAME":"GEESAT-5 05","OBJECT_ID":"2025-201E","EPOCH":"2026-03-09T17:14:17.887776","MEAN_MOTION":14.83770163,"ECCENTRICITY":0.00115794,"INCLINATION":49.98,"RA_OF_ASC_NODE":140.5064,"ARG_OF_PERICENTER":255.8827,"MEAN_ANOMALY":104.0824,"EPHEMERIS_TYPE":0,"CLASSIFICATION_TYPE":"U","NORAD_CAT_ID":65554,"ELEMENT_SET_NO":999,"REV_AT_EPOCH":2702,"BSTAR":0.00036020653,"MEAN_MOTION_DOT":2.79e-5,"MEAN_MOTION_DDOT":0},{"OBJECT_NAME":"LEMUR-2-GRAM-E-SUE","OBJECT_ID":"2026-004H","EPOCH":"2026-03-09T22:14:14.369280","MEAN_MOTION":14.87820333,"ECCENTRICITY":0.00087695,"INCLINATION":97.7976,"RA_OF_ASC_NODE":69.0865,"ARG_OF_PERICENTER":107.9643,"MEAN_ANOMALY":252.2531,"EPHEMERIS_TYPE":0,"CLASSIFICATION_TYPE":"U","NORAD_CAT_ID":67370,"ELEMENT_SET_NO":999,"REV_AT_EPOCH":853,"BSTAR":0.00070013244,"MEAN_MOTION_DOT":6.35e-5,"MEAN_MOTION_DDOT":0}]
